NORAD_CAT_ID,OBJECT_NAME,OBJECT_TYPE,EPOCH,MEAN_MOTION,ECCENTRICITY,INCLINATION,RA_OF_ASC_NODE,ARG_OF_PERICENTER,MEAN_ANOMALY,BSTAR,MEAN_MOTION_DOT,MEAN_MOTION_DDOT,TLE_LINE0,TLE_LINE1,TLE_LINE2,SEMIMAJOR_AXIS,PERIOD,APOGEE,PERIGEE,DECAYED
52305.0,STARLINK-3724,PAYLOAD,2024-01-30 22:46:32,15.0884909,0.0002346,53.2169,310.2381,55.1503,304.9709,0.00069896,0.00010856,0.0,0 STARLINK-3724,1 52305U 22041AW  24030.94899256  .00010856  00000-0  69896-3 0  9996,2 52305  53.2169 310.2381 0002346  55.1503 304.9709 15.08849090 98457,6917.853,95.437,541.341,538.095,0.0
52305.0,STARLINK-3724,PAYLOAD,2024-01-31 01:57:19,15.08840157,0.0001735,53.2168,309.6497,89.4767,270.6424,-1.2651e-05,-4.89e-06,0.0,0 STARLINK-3724,1 52305U 22041AW  24031.08147033 -.00000489  00000-0 -12651-4 0  9992,2 52305  53.2168 309.6497 0001735  89.4767 270.6424 15.08840157 99694,6917.88,95.438,540.945,538.545,0.0
52305.0,STARLINK-3724,PAYLOAD,2024-01-31 19:26:33,15.0883519,0.0001832,53.2168,306.3702,78.8786,281.2412,2.4226e-05,9.7e-07,0.0,0 STARLINK-3724,1 52305U 22041AW  24031.81011498  .00000097  00000-0  24226-4 0  9992,2 52305  53.2168 306.3702 0001832  78.8786 281.2412 15.08835190 99807,6917.895,95.438,541.027,538.493,0.0
52305.0,STARLINK-3724,PAYLOAD,2024-02-01 01:48:05,15.08849682,0.0001713,53.2167,305.1858,98.7537,261.3649,0.00025701,3.806e-05,0.0,0 STARLINK-3724,1 52305U 22041AW  24032.07506907  .00003806  00000-0  25701-3 0  9994,2 52305  53.2167 305.1858 0001713  98.7537 261.3649 15.08849682 99844,6917.851,95.437,540.901,538.531,0.0
52305.0,STARLINK-3724,PAYLOAD,2024-02-02 00:03:30,15.08839569,0.0001844,53.2179,301.0173,91.8369,268.2835,0.00011424,1.53e-05,0.0,0 STARLINK-3724,1 52305U 22041AW  24033.00243470  .00001530  00000-0  11424-3 0  9990,2 52305  53.2179 301.0173 0001844  91.8369 268.2835 15.08839569 99985,6917.882,95.438,541.022,538.471,0.0
52305.0,STARLINK-3724,PAYLOAD,2024-02-02 22:18:54,15.0882694,0.0002153,53.2182,296.856,94.4962,265.6276,0.0006438,9.969e-05,0.0,0 STARLINK-3724,1 52305U 22041AW  24033.92980314  .00009969  00000-0  64380-3 0  9999,2 52305  53.2182 296.8560 0002153  94.4962 265.6276 15.08826940 98902,6917.92,95.438,541.275,538.296,0.0
52305.0,STARLINK-3724,PAYLOAD,2024-02-03 03:05:03,15.08851981,0.0001955,53.2176,295.9617,93.3635,266.7581,5.7059e-05,6.2e-06,0.0,0 STARLINK-3724,1 52305U 22041AW  24034.12850890  .00000620  00000-0  57059-4 0  9998,2 52305  53.2176 295.9617 0001955  93.3635 266.7581 15.08851981100157,6917.844,95.437,541.061,538.356,0.0
52305.0,STARLINK-3724,PAYLOAD,2024-02-03 22:09:42,15.08792307,0.0002427,53.2178,292.3894,114.1194,246.0052,0.0013347,0.0002099,0.0,0 STARLINK-3724,1 52305U 22041AW  24034.92341430  .00020990  00000-0  13347-2 0  9993,2 52305  53.2178 292.3894 0002427 114.1194 246.0052 15.08792307 99050,6918.026,95.441,541.57,538.212,0.0
52305.0,STARLINK-3724,PAYLOAD,2024-02-03 23:45:04,15.08839176,0.0001846,53.2179,292.0908,101.8461,258.2738,8.6851e-05,1.094e-05,0.0,0 STARLINK-3724,1 52305U 22041AW  24034.98963553  .00001094  00000-0  86851-4 0  9991,2 52305  53.2179 292.0908 0001846 101.8461 258.2738 15.08839176100288,6917.883,95.438,541.025,538.471,0.0
52305.0,STARLINK-3724,PAYLOAD,2024-02-04 22:00:28,15.08844188,0.0001768,53.2164,287.9279,104.0404,256.0784,3.2219e-05,2.25e-06,0.0,0 STARLINK-3724,1 52305U 22041AW  24035.91699247  .00000225  00000-0  32219-4 0  9995,2 52305  53.2164 287.9279 0001768 104.0404 256.0784 15.08844188 99206,6917.868,95.437,540.956,538.51,0.0
52305.0,STARLINK-3724,PAYLOAD,2024-02-05 02:46:37,15.0883754,0.0001853,53.2179,287.0387,104.1297,255.9901,0.00015385,2.161e-05,0.0,0 STARLINK-3724,1 52305U 22041AW  24036.11571554  .00002161  00000-0  15385-3 0  9993,2 52305  53.2179 287.0387 0001853 104.1297 255.9901 15.08837540100452,6917.888,95.438,541.035,538.471,0.0
52305.0,STARLINK-3724,PAYLOAD,2024-02-05 09:08:10,15.08846015,0.0001731,53.2176,285.8509,86.6368,273.4822,3.9603e-05,3.42e-06,0.0,0 STARLINK-3724,1 52305U 22041AW  24036.38067299  .00000342  00000-0  39603-4 0  9997,2 52305  53.2176 285.8509 0001731  86.6368 273.4822 15.08846015 99270,6917.862,95.437,540.924,538.53,0.0
52305.0,STARLINK-3724,PAYLOAD,2024-02-05 21:51:15,15.08844415,0.0001935,53.2181,283.4737,114.142,245.9775,7.0467e-05,8.34e-06,0.0,0 STARLINK-3724,1 52305U 22041AW  24036.91059397  .00000834  00000-0  70467-4 0  9995,2 52305  53.2181 283.4737 0001935 114.1420 245.9775 15.08844415 99357,6917.867,95.437,541.071,538.393,0.0
52305.0,STARLINK-3724,PAYLOAD,2024-02-05 23:26:38,15.08844466,0.0001679,53.2175,283.1796,100.199,259.9191,0.00012899,1.766e-05,0.0,0 STARLINK-3724,1 52305U 22041AW  24036.97683350  .00001766  00000-0  12899-3 0  9992,2 52305  53.2175 283.1796 0001679 100.1990 259.9191 15.08844466 99368,6917.867,95.437,540.893,538.57,0.0
52305.0,STARLINK-3724,PAYLOAD,2024-02-06 20:06:39,15.08840352,0.0001613,53.216,279.314,96.8104,263.3072,-3.0607e-05,-7.75e-06,0.0,0 STARLINK-3724,1 52305U 22041AW  24037.83795585 -.00000775  00000-0 -30607-4 0  9991,2 52305  53.2160 279.3140 0001613  96.8104 263.3072 15.08840352100717,6917.879,95.438,540.86,538.628,0.0
52305.0,STARLINK-3724,PAYLOAD,2024-02-06 21:42:02,15.08840179,0.0001616,53.2166,279.0168,97.1801,262.9375,-1.8299e-05,-5.79e-06,0.0,0 STARLINK-3724,1 52305U 22041AW  24037.90419617 -.00000579  00000-0 -18299-4 0  9993,2 52305  53.2166 279.0168 0001616  97.1801 262.9375 15.08840179 99503,6917.88,95.438,540.863,538.627,0.0
52305.0,STARLINK-3724,PAYLOAD,2024-02-07 08:49:44,15.08840061,0.0001672,53.2174,276.9317,84.0222,276.0961,5.3922e-05,5.7e-06,0.0,0 STARLINK-3724,1 52305U 22041AW  24038.36787682  .00000570  00000-0  53922-4 0  9995,2 52305  53.2174 276.9317 0001672  84.0222 276.0961 15.08840061 99572,6917.88,95.438,540.902,538.589,0.0
52305.0,STARLINK-3724,PAYLOAD,2024-02-07 19:57:26,15.0883372,0.0001838,53.2181,274.8534,88.8968,271.2235,-7.8211e-06,-4.13e-06,0.0,0 STARLINK-3724,1 52305U 22041AW  24038.83156248 -.00000413  00000-0 -78211-5 0  9992,2 52305  53.2181 274.8534 0001838  88.8968 271.2235 15.08833720100861,6917.9,95.438,541.036,538.493,0.0
52305.0,STARLINK-3724,PAYLOAD,2024-02-07 21:32:50,15.08833599,0.0001699,53.2177,274.556,86.9937,273.125,-4.9136e-05,-1.07e-05,0.0,0 STARLINK-3724,1 52305U 22041AW  24038.89780240 -.00001070  00000-0 -49136-4 0  9996,2 52305  53.2177 274.5560 0001699  86.9937 273.1250 15.08833599 99658,6917.9,95.438,540.94,538.59,0.0
52305.0,STARLINK-3724,PAYLOAD,2024-02-08 08:40:32,15.08837477,0.0001612,53.2159,272.4744,93.8982,266.2194,5.0404e-05,5.14e-06,0.0,0 STARLINK-3724,1 52305U 22041AW  24039.36148398  .00000514  00000-0  50404-4 0  9991,2 52305  53.2159 272.4744 0001612  93.8982 266.2194 15.08837477 99728,6917.888,95.438,540.868,538.638,0.0
52305.0,STARLINK-3724,PAYLOAD,2024-02-08 21:23:36,15.08843962,0.0001383,53.2167,270.0926,92.5967,267.5183,6.8873e-05,8.08e-06,0.0,0 STARLINK-3724,1 52305U 22041AW  24039.89140023  .00000808  00000-0  68873-4 0  9991,2 52305  53.2167 270.0926 0001383  92.5967 267.5183 15.08843962 99804,6917.868,95.437,540.69,538.777,0.0
52305.0,STARLINK-3724,PAYLOAD,2024-02-09 00:34:22,15.08847053,0.000145,53.2174,269.4959,86.9372,273.1786,0.0001271,1.736e-05,0.0,0 STARLINK-3724,1 52305U 22041AW  24040.02387708  .00001736  00000-0  12710-3 0  9990,2 52305  53.2174 269.4959 0001450  86.9372 273.1786 15.08847053101049,6917.859,95.437,540.727,538.721,0.0
52305.0,STARLINK-3724,PAYLOAD,2024-02-09 19:39:00,15.08840163,0.0001351,53.2172,265.9269,89.5451,270.5696,0.00017281,2.463e-05,0.0,0 STARLINK-3724,1 52305U 22041AW  24040.81876050  .00002463  00000-0  17281-3 0  9996,2 52305  53.2172 265.9269 0001351  89.5451 270.5696 15.08840163101168,6917.88,95.438,540.679,538.81,0.0
52305.0,STARLINK-3724,PAYLOAD,2024-02-09 21:14:23,15.08845149,0.0001366,53.2169,265.6293,91.6899,268.425,0.00012076,1.635e-05,0.0,0 STARLINK-3724,1 52305U 22041AW  24040.88499881  .00001635  00000-0  12076-3 0  9993,2 52305  53.2169 265.6293 0001366  91.6899 268.4250 15.08845149 99958,6917.865,95.437,540.675,538.785,0.0
52305.0,STARLINK-3724,PAYLOAD,2024-02-10 21:05:10,15.08846954,0.0001389,53.2167,261.1669,88.3108,271.8044,5.899e-05,6.51e-06,0.0,0 STARLINK-3724,1 52305U 22041AW  24041.87859888  .00000651  00000-0  58990-4 0  9993,2 52305  53.2167 261.1669 0001389  88.3108 271.8044 15.08846954100109,6917.859,95.437,540.685,538.763,0.0
52305.0,STARLINK-3724,PAYLOAD,2024-02-11 19:20:35,15.08840773,0.0001312,53.2156,257.004,105.1282,254.9855,-4.9956e-06,-3.67e-06,0.0,0 STARLINK-3724,1 52305U 22041AW  24042.80596223 -.00000367  00000-0 -49956-5 0  9997,2 52305  53.2156 257.0040 0001312 105.1282 254.9855 15.08840773101466,6917.878,95.438,540.651,538.835,0.0
52305.0,STARLINK-3724,PAYLOAD,2024-02-11 20:55:58,15.08838542,0.0001285,53.2161,256.7097,104.4423,255.6712,-5.888e-05,-1.225e-05,0.0,0 STARLINK-3724,1 52305U 22041AW  24042.87220491 -.00001225  00000-0 -58880-4 0  9994,2 52305  53.2161 256.7097 0001285 104.4423 255.6712 15.08838542100255,6917.885,95.438,540.639,538.861,0.0
52305.0,STARLINK-3724,PAYLOAD,2024-02-12 14:25:13,15.08835901,0.0001239,53.2159,253.4391,99.2165,260.8967,1.6454e-05,-2.6e-07,0.0,0 STARLINK-3724,1 52305U 22041AW  24043.60084773 -.00000026  00000-0  16454-4 0  9995,2 52305  53.2159 253.4391 0001239  99.2165 260.8967 15.08835901100364,6917.893,95.438,540.615,538.901,0.0
52305.0,STARLINK-3724,PAYLOAD,2024-02-12 20:46:45,15.08845502,0.0001379,53.2164,252.2551,101.0199,259.0948,7.3829e-05,8.87e-06,0.0,0 STARLINK-3724,1 52305U 22041AW  24043.86580035  .00000887  00000-0  73829-4 0  9998,2 52305  53.2164 252.2551 0001379 101.0199 259.0948 15.08845502100401,6917.864,95.437,540.683,538.775,0.0
52305.0,STARLINK-3724,PAYLOAD,2024-02-12 23:57:31,15.08845851,0.0001346,53.2159,251.6558,90.2132,269.9014,0.00011141,1.486e-05,0.0,0 STARLINK-3724,1 52305U 22041AW  24043.99827934  .00001486  00000-0  11141-3 0  9998,2 52305  53.2159 251.6558 0001346  90.2132 269.9014 15.08845851101643,6917.863,95.437,540.659,538.796,0.0
